CCSDS_OMM_VERS = 2.0
CREATION_DATE  = 
ORIGINATOR     = 

OBJECT_NAME    = STARLINK-36114
OBJECT_ID      = 2025-281Y
CENTER_NAME    = EARTH
REF_FRAME      = TEME
TIME_SYSTEM    = UTC
MEAN_ELEMENT_THEORY = SGP/SGP4

EPOCH          = 2025-12-10T18:00:02.000160
MEAN_MOTION    = 15.96782568
ECCENTRICITY   = .0001629
INCLINATION    = 43.0020
RA_OF_ASC_NODE = 134.6620
ARG_OF_PERICENTER = 272.0351
MEAN_ANOMALY   = 23.2092

EPHEMERIS_TYPE = 0
CLASSIFICATION_TYPE = U
NORAD_CAT_ID   = 66870
ELEMENT_SET_NO = 999
REV_AT_EPOCH   = 247
BSTAR          = -.2797E-2
MEAN_MOTION_DOT = -.1241749E-1
MEAN_MOTION_DDOT = .47077E-3

CCSDS_OMM_VERS = 2.0
CREATION_DATE  = 
ORIGINATOR     = 

OBJECT_NAME    = STARLINK-36095
OBJECT_ID      = 2025-281Z
CENTER_NAME    = EARTH
REF_FRAME      = TEME
TIME_SYSTEM    = UTC
MEAN_ELEMENT_THEORY = SGP/SGP4

EPOCH          = 2025-12-10T18:00:02.000160
MEAN_MOTION    = 15.96880545
ECCENTRICITY   = .000163
INCLINATION    = 43.0018
RA_OF_ASC_NODE = 134.6543
ARG_OF_PERICENTER = 274.0170
MEAN_ANOMALY   = 24.1112

EPHEMERIS_TYPE = 0
CLASSIFICATION_TYPE = U
NORAD_CAT_ID   = 66871
ELEMENT_SET_NO = 999
REV_AT_EPOCH   = 247
BSTAR          = -.27933E-2
MEAN_MOTION_DOT = -.1246757E-1
MEAN_MOTION_DDOT = .47473E-3

CCSDS_OMM_VERS = 2.0
CREATION_DATE  = 
ORIGINATOR     = 

OBJECT_NAME    = STARLINK-36082
OBJECT_ID      = 2025-281AA
CENTER_NAME    = EARTH
REF_FRAME      = TEME
TIME_SYSTEM    = UTC
MEAN_ELEMENT_THEORY = SGP/SGP4

EPOCH          = 2025-12-10T18:00:02.000160
MEAN_MOTION    = 15.96940670
ECCENTRICITY   = .0001725
INCLINATION    = 43.0018
RA_OF_ASC_NODE = 134.6495
ARG_OF_PERICENTER = 271.8713
MEAN_ANOMALY   = 28.1659

EPHEMERIS_TYPE = 0
CLASSIFICATION_TYPE = U
NORAD_CAT_ID   = 66872
ELEMENT_SET_NO = 999
REV_AT_EPOCH   = 247
BSTAR          = -.27683E-2
MEAN_MOTION_DOT = -.1239806E-1
MEAN_MOTION_DDOT = .47019E-3

CCSDS_OMM_VERS = 2.0
CREATION_DATE  = 
ORIGINATOR     = 

OBJECT_NAME    = STARLINK-36128
OBJECT_ID      = 2025-281AB
CENTER_NAME    = EARTH
REF_FRAME      = TEME
TIME_SYSTEM    = UTC
MEAN_ELEMENT_THEORY = SGP/SGP4

EPOCH          = 2025-12-10T18:00:02.000160
MEAN_MOTION    = 15.97195544
ECCENTRICITY   = .0001713
INCLINATION    = 43.0015
RA_OF_ASC_NODE = 134.6311
ARG_OF_PERICENTER = 272.8425
MEAN_ANOMALY   = 34.4024

EPHEMERIS_TYPE = 0
CLASSIFICATION_TYPE = U
NORAD_CAT_ID   = 66873
ELEMENT_SET_NO = 999
REV_AT_EPOCH   = 242
BSTAR          = -.27664E-2
MEAN_MOTION_DOT = -.1256354E-1
MEAN_MOTION_DDOT = .483E-3

CCSDS_OMM_VERS = 2.0
CREATION_DATE  = 
ORIGINATOR     = 

OBJECT_NAME    = STARLINK-36129
OBJECT_ID      = 2025-281AC
CENTER_NAME    = EARTH
REF_FRAME      = TEME
TIME_SYSTEM    = UTC
MEAN_ELEMENT_THEORY = SGP/SGP4

EPOCH          = 2025-12-10T18:00:02.000160
MEAN_MOTION    = 15.97038594
ECCENTRICITY   = .0001722
INCLINATION    = 43.0018
RA_OF_ASC_NODE = 134.6426
ARG_OF_PERICENTER = 273.4070
MEAN_ANOMALY   = 29.3953

EPHEMERIS_TYPE = 0
CLASSIFICATION_TYPE = U
NORAD_CAT_ID   = 66874
ELEMENT_SET_NO = 999
REV_AT_EPOCH   = 247
BSTAR          = -.27677E-2
MEAN_MOTION_DOT = -.1246183E-1
MEAN_MOTION_DDOT = .4751E-3

CCSDS_OMM_VERS = 2.0
CREATION_DATE  = 
ORIGINATOR     = 

OBJECT_NAME    = STARLINK-36053
OBJECT_ID      = 2025-281AD
CENTER_NAME    = EARTH
REF_FRAME      = TEME
TIME_SYSTEM    = UTC
MEAN_ELEMENT_THEORY = SGP/SGP4

EPOCH          = 2025-12-10T18:00:02.000160
MEAN_MOTION    = 15.97277493
ECCENTRICITY   = .0001692
INCLINATION    = 43.0017
RA_OF_ASC_NODE = 134.6244
ARG_OF_PERICENTER = 274.4156
MEAN_ANOMALY   = 35.2421

EPHEMERIS_TYPE = 0
CLASSIFICATION_TYPE = U
NORAD_CAT_ID   = 66875
ELEMENT_SET_NO = 999
REV_AT_EPOCH   = 242
BSTAR          = -.27453E-2
MEAN_MOTION_DOT = -.1252507E-1
MEAN_MOTION_DDOT = .4807E-3

CCSDS_OMM_VERS = 2.0
CREATION_DATE  = 
ORIGINATOR     = 

OBJECT_NAME    = STARLINK-35702
OBJECT_ID      = 2025-281AE
CENTER_NAME    = EARTH
REF_FRAME      = TEME
TIME_SYSTEM    = UTC
MEAN_ELEMENT_THEORY = SGP/SGP4

EPOCH          = 2025-12-10T18:00:02.000160
MEAN_MOTION    = 15.97131878
ECCENTRICITY   = .0001742
INCLINATION    = 43.0020
RA_OF_ASC_NODE = 134.6356
ARG_OF_PERICENTER = 276.3063
MEAN_ANOMALY   = 29.2605

EPHEMERIS_TYPE = 0
CLASSIFICATION_TYPE = U
NORAD_CAT_ID   = 66876
ELEMENT_SET_NO = 999
REV_AT_EPOCH   = 247
BSTAR          = -.27497E-2
MEAN_MOTION_DOT = -.1244535E-1
MEAN_MOTION_DDOT = .47441E-3

CCSDS_OMM_VERS = 2.0
CREATION_DATE  = 
ORIGINATOR     = 

OBJECT_NAME    = ZQ-3 R/B
OBJECT_ID      = 2025-282A
CENTER_NAME    = EARTH
REF_FRAME      = TEME
TIME_SYSTEM    = UTC
MEAN_ELEMENT_THEORY = SGP/SGP4

EPOCH          = 2025-12-11T12:17:10.023648
MEAN_MOTION    = 14.55777635
ECCENTRICITY   = .07945377
INCLINATION    = 56.9524
RA_OF_ASC_NODE = 62.3657
ARG_OF_PERICENTER = 217.8291
MEAN_ANOMALY   = 136.4277

EPHEMERIS_TYPE = 0
CLASSIFICATION_TYPE = U
NORAD_CAT_ID   = 66877
ELEMENT_SET_NO = 999
REV_AT_EPOCH   = 121
BSTAR          = .26236173E-3
MEAN_MOTION_DOT = .1286835E-1
MEAN_MOTION_DDOT = .7412602E-5

CCSDS_OMM_VERS = 2.0
CREATION_DATE  = 
ORIGINATOR     = 

OBJECT_NAME    = 1998-067XS
OBJECT_ID      = 1998-067XS
CENTER_NAME    = EARTH
REF_FRAME      = TEME
TIME_SYSTEM    = UTC
MEAN_ELEMENT_THEORY = SGP/SGP4

EPOCH          = 2025-12-11T04:22:42.253536
MEAN_MOTION    = 15.50439588
ECCENTRICITY   = .00037466
INCLINATION    = 51.6302
RA_OF_ASC_NODE = 150.1407
ARG_OF_PERICENTER = 195.2111
MEAN_ANOMALY   = 164.8766

EPHEMERIS_TYPE = 0
CLASSIFICATION_TYPE = U
NORAD_CAT_ID   = 66906
ELEMENT_SET_NO = 999
REV_AT_EPOCH   = 137
BSTAR          = .67409178E-3
MEAN_MOTION_DOT = .38814E-3
MEAN_MOTION_DDOT = 0

CCSDS_OMM_VERS = 2.0
CREATION_DATE  = 
ORIGINATOR     = 

OBJECT_NAME    = 1998-067XT
OBJECT_ID      = 1998-067XT
CENTER_NAME    = EARTH
REF_FRAME      = TEME
TIME_SYSTEM    = UTC
MEAN_ELEMENT_THEORY = SGP/SGP4

EPOCH          = 2025-12-09T12:07:37.114752
MEAN_MOTION    = 15.50864429
ECCENTRICITY   = .00048036
INCLINATION    = 51.6307
RA_OF_ASC_NODE = 158.4423
ARG_OF_PERICENTER = 208.5081
MEAN_ANOMALY   = 151.5646

EPHEMERIS_TYPE = 0
CLASSIFICATION_TYPE = U
NORAD_CAT_ID   = 66907
ELEMENT_SET_NO = 999
REV_AT_EPOCH   = 111
BSTAR          = .12921241E-2
MEAN_MOTION_DOT = .76342E-3
MEAN_MOTION_DDOT = 0

CCSDS_OMM_VERS = 2.0
CREATION_DATE  = 
ORIGINATOR     = 

OBJECT_NAME    = 1998-067XU
OBJECT_ID      = 1998-067XU
CENTER_NAME    = EARTH
REF_FRAME      = TEME
TIME_SYSTEM    = UTC
MEAN_ELEMENT_THEORY = SGP/SGP4

EPOCH          = 2025-12-10T15:57:23.331168
MEAN_MOTION    = 15.51115637
ECCENTRICITY   = .00048129
INCLINATION    = 51.6304
RA_OF_ASC_NODE = 152.6848
ARG_OF_PERICENTER = 213.5482
MEAN_ANOMALY   = 146.5203

EPHEMERIS_TYPE = 0
CLASSIFICATION_TYPE = U
NORAD_CAT_ID   = 66908
ELEMENT_SET_NO = 999
REV_AT_EPOCH   = 129
BSTAR          = .14713865E-2
MEAN_MOTION_DOT = .87912E-3
MEAN_MOTION_DDOT = 0

CCSDS_OMM_VERS = 2.0
CREATION_DATE  = 
ORIGINATOR     = 

OBJECT_NAME    = SILVERSAT
OBJECT_ID      = 1998-067XV
CENTER_NAME    = EARTH
REF_FRAME      = TEME
TIME_SYSTEM    = UTC
MEAN_ELEMENT_THEORY = SGP/SGP4

EPOCH          = 2025-12-11T15:08:30.108192
MEAN_MOTION    = 15.51411280
ECCENTRICITY   = .00045448
INCLINATION    = 51.6302
RA_OF_ASC_NODE = 147.8859
ARG_OF_PERICENTER = 221.0614
MEAN_ANOMALY   = 139.0034

EPHEMERIS_TYPE = 0
CLASSIFICATION_TYPE = U
NORAD_CAT_ID   = 66909
ELEMENT_SET_NO = 999
REV_AT_EPOCH   = 144
BSTAR          = .13283829E-2
MEAN_MOTION_DOT = .80084E-3
MEAN_MOTION_DDOT = 0

CCSDS_OMM_VERS = 2.0
CREATION_DATE  = 
ORIGINATOR     = 

OBJECT_NAME    = 1998-067XW
OBJECT_ID      = 1998-067XW
CENTER_NAME    = EARTH
REF_FRAME      = TEME
TIME_SYSTEM    = UTC
MEAN_ELEMENT_THEORY = SGP/SGP4

EPOCH          = 2025-12-11T12:00:59.894208
MEAN_MOTION    = 15.51542196
ECCENTRICITY   = .00053507
INCLINATION    = 51.6307
RA_OF_ASC_NODE = 148.5174
ARG_OF_PERICENTER = 201.3550
MEAN_ANOMALY   = 158.7217

EPHEMERIS_TYPE = 0
CLASSIFICATION_TYPE = U
NORAD_CAT_ID   = 66910
ELEMENT_SET_NO = 999
REV_AT_EPOCH   = 142
BSTAR          = .16174677E-2
MEAN_MOTION_DOT = .98314E-3
MEAN_MOTION_DDOT = 0

CCSDS_OMM_VERS = 2.0
CREATION_DATE  = 
ORIGINATOR     = 

OBJECT_NAME    = 1998-067XX
OBJECT_ID      = 1998-067XX
CENTER_NAME    = EARTH
REF_FRAME      = TEME
TIME_SYSTEM    = UTC
MEAN_ELEMENT_THEORY = SGP/SGP4

EPOCH          = 2025-12-11T04:16:32.481408
MEAN_MOTION    = 15.51664190
ECCENTRICITY   = .00051917
INCLINATION    = 51.6299
RA_OF_ASC_NODE = 150.1129
ARG_OF_PERICENTER = 201.0739
MEAN_ANOMALY   = 159.0038

EPHEMERIS_TYPE = 0
CLASSIFICATION_TYPE = U
NORAD_CAT_ID   = 66911
ELEMENT_SET_NO = 999
REV_AT_EPOCH   = 136
BSTAR          = .16096113E-2
MEAN_MOTION_DOT = .98261E-3
MEAN_MOTION_DDOT = 0

CCSDS_OMM_VERS = 2.0
CREATION_DATE  = 
ORIGINATOR     = 

OBJECT_NAME    = 1998-067XY
OBJECT_ID      = 1998-067XY
CENTER_NAME    = EARTH
REF_FRAME      = TEME
TIME_SYSTEM    = UTC
MEAN_ELEMENT_THEORY = SGP/SGP4

EPOCH          = 2025-12-11T12:04:50.239200
MEAN_MOTION    = 15.50956901
ECCENTRICITY   = .0004664
INCLINATION    = 51.6302
RA_OF_ASC_NODE = 148.5351
ARG_OF_PERICENTER = 216.8191
MEAN_ANOMALY   = 143.2479

EPHEMERIS_TYPE = 0
CLASSIFICATION_TYPE = U
NORAD_CAT_ID   = 66912
ELEMENT_SET_NO = 999
REV_AT_EPOCH   = 141
BSTAR          = .10602588E-2
MEAN_MOTION_DOT = .62656E-3
MEAN_MOTION_DDOT = 0

